NORAD_CAT_ID,OBJECT_NAME,OBJECT_TYPE,EPOCH,MEAN_MOTION,ECCENTRICITY,INCLINATION,RA_OF_ASC_NODE,ARG_OF_PERICENTER,MEAN_ANOMALY,BSTAR,MEAN_MOTION_DOT,MEAN_MOTION_DDOT,TLE_LINE0,TLE_LINE1,TLE_LINE2,SEMIMAJOR_AXIS,PERIOD,APOGEE,PERIGEE,DECAYED
51127.0,STARLINK-3370,PAYLOAD,2022-05-05 22:00:00,15.08809807,0.0001984,53.2176,120.8833,50.3834,251.0766,0.0026658,0.00042359,0.0,0 STARLINK-3370,1 51127U 22005Z   22125.91667824  .00042359  00000-0  26658-2 0  9992,2 51127  53.2176 120.8833 0001984  50.3834 251.0766 15.08809807  3570,6917.973000000001,95.439,541.21,538.465,0.0
51127.0,STARLINK-3370,PAYLOAD,2022-05-06 06:00:00,15.08836618,0.0002171,53.2177,119.3888,47.208,265.8305,-0.00070386,-0.00011472,0.0,0 STARLINK-3370,1 51127U 22005Z   22126.25001157 -.00011472  00000-0 -70386-3 0  9993,2 51127  53.2177 119.3888 0002171  47.2080 265.8305 15.08836618 17983,6917.891,95.438,541.258,538.254,0.0
51127.0,STARLINK-3370,PAYLOAD,2022-05-06 14:00:01,15.08851902,0.000215,53.2177,117.8922,46.1219,278.4953,-0.0018371,-0.00029417,0.0,0 STARLINK-3370,1 51127U 22005Z   22126.58334491 -.00029417  00000-0 -18371-2 0  9992,2 51127  53.2177 117.8922 0002150  46.1219 278.4953 15.08851902  3576,6917.844,95.437,541.196,538.222,0.0
51127.0,STARLINK-3370,PAYLOAD,2022-05-07 06:00:02,15.08858917,0.0002173,53.2182,114.9,47.6153,300.2584,-0.0031662,-0.00050354,0.0,0 STARLINK-3370,1 51127U 22005Z   22127.25002315 -.00050354  00000-0 -31662-2 0  9996,2 51127  53.2182 114.9000 0002173  47.6153 300.2584 15.08858917 18130,6917.823,95.436,541.191,538.184,0.0
51127.0,STARLINK-3370,PAYLOAD,2022-05-07 14:00:01,15.08838506,0.0002082,53.2179,113.4033,45.9374,313.4698,-0.002022,-0.00032324,0.0,0 STARLINK-3370,1 51127U 22005Z   22127.58334491 -.00032324  00000-0 -20220-2 0  9990,2 51127  53.2179 113.4033 0002082  45.9374 313.4698 15.08838506  3612,6917.885,95.438,541.19,538.31,0.0
51127.0,STARLINK-3370,PAYLOAD,2022-05-07 22:00:00,15.08813166,0.0001959,53.2183,111.9059,52.0727,318.9176,0.0022983,0.00036452,0.0,0 STARLINK-3370,1 51127U 22005Z   22127.91667824  .00036452  00000-0  22983-2 0  9998,2 51127  53.2183 111.9059 0001959  52.0727 318.9176 15.08813166 18231,6917.962,95.439,541.183,538.472,0.0
51127.0,STARLINK-3370,PAYLOAD,2022-05-08 14:00:01,15.08848709,0.0002081,53.2178,108.9145,48.0611,346.0861,-0.0021433,-0.00034246,0.0,0 STARLINK-3370,1 51127U 22005Z   22128.58334491 -.00034246  00000-0 -21433-2 0  9993,2 51127  53.2178 108.9145 0002081  48.0611 346.0861 15.08848709 18336,6917.854,95.437,541.158,538.279,0.0
51127.0,STARLINK-3370,PAYLOAD,2022-05-08 22:00:00,15.08829945,0.0001978,53.218,107.4172,54.4054,351.3394,0.0019434,0.00030768,0.0,0 STARLINK-3370,1 51127U 22005Z   22128.91667824  .00030768  00000-0  19434-2 0  9990,2 51127  53.2180 107.4172 0001978  54.4054 351.3394 15.08829945  3604,6917.911,95.438,541.144,538.408,0.0
51127.0,STARLINK-3370,PAYLOAD,2022-05-09 06:00:00,15.08842965,0.0002158,53.2178,105.9228,50.4262,6.9165,-0.0001564,-2.777e-05,0.0,0 STARLINK-3370,1 51127U 22005Z   22129.25001157 -.00002777  00000-0 -15640-3 0  9996,2 51127  53.2178 105.9228 0002158  50.4262   6.9165 15.08842965 18437,6917.871,95.437,541.229,538.243,0.0
51127.0,STARLINK-3370,PAYLOAD,2022-05-09 14:00:01,15.08864025,0.0002089,53.2174,104.4255,50.724,18.277,-0.0018626,-0.00029829,0.0,0 STARLINK-3370,1 51127U 22005Z   22129.58335648 -.00029829  00000-0 -18626-2 0  9990,2 51127  53.2174 104.4255 0002089  50.7240  18.2770 15.08864025  3601,6917.807,95.436,541.117,538.227,0.0
51127.0,STARLINK-3370,PAYLOAD,2022-05-09 22:00:00,15.08858936,0.0001973,53.2175,102.9283,55.7872,24.7628,-0.0015147,-0.00024327,0.0,0 STARLINK-3370,1 51127U 22005Z   22129.91667824 -.00024327  00000-0 -15147-2 0  9994,2 51127  53.2175 102.9283 0001973  55.7872  24.7628 15.08858936  3599,6917.823,95.436,541.052,538.323,0.0
51127.0,STARLINK-3370,PAYLOAD,2022-05-10 14:00:01,15.08846586,0.0002031,53.217,99.9364,50.8692,52.8635,-0.0018358,-0.00029392,0.0,0 STARLINK-3370,1 51127U 22005Z   22130.58334491 -.00029392  00000-0 -18358-2 0  9994,2 51127  53.2170  99.9364 0002031  50.8692  52.8635 15.08846586 18641,6917.86,95.437,541.13,538.32,0.0
51127.0,STARLINK-3370,PAYLOAD,2022-05-10 18:00:00,15.0881348,0.0001955,53.217,99.1874,53.7866,235.7535,0.0027352,0.0004348,0.0,0 STARLINK-3370,1 51127U 22005Z   22130.75001157  .00043480  00000-0  27352-2 0  9999,2 51127  53.2170  99.1874 0001955  53.7866 235.7535 15.08813480  3594,6917.9609999999975,95.439,541.179,538.474,0.0
51127.0,STARLINK-3370,PAYLOAD,2022-05-11 22:00:00,15.08831899,0.0001987,53.2173,93.9499,55.4725,94.6393,0.00085756,0.00013383,0.0,0 STARLINK-3370,1 51127U 22005Z   22131.91667824  .00013383  00000-0  85756-3 0  9999,2 51127  53.2173  93.9499 0001987  55.4725  94.6393 15.08831899 18842,6917.905,95.438,541.145,538.396,0.0
51127.0,STARLINK-3370,PAYLOAD,2022-05-12 14:00:01,15.08859696,0.000204,53.2174,90.9576,51.5705,121.7206,-0.0015913,-0.00025539,0.0,0 STARLINK-3370,1 51127U 22005Z   22132.58334491 -.00025539  00000-0 -15913-2 0  9999,2 51127  53.2174  90.9576 0002040  51.5705 121.7206 15.08859696  1305,6917.82,95.436,541.096,538.274,0.0
51127.0,STARLINK-3370,PAYLOAD,2022-05-12 22:00:00,15.08839301,0.0001831,53.2179,89.4606,49.2178,135.7223,0.00011622,1.562e-05,0.0,0 STARLINK-3370,1 51127U 22005Z   22132.91667824  .00001562  00000-0  11622-3 0  9997,2 51127  53.2179  89.4606 0001831  49.2178 135.7223 15.08839301  1307,6917.8830000000025,95.438,541.014,538.481,0.0
51127.0,STARLINK-3370,PAYLOAD,2022-05-13 06:00:00,15.0883141,0.0001987,53.2179,87.96600000000002,42.6454,153.8889,-0.00042173,-6.992e-05,0.0,0 STARLINK-3370,1 51127U 22005Z   22133.25001157 -.00006992  00000-0 -42173-3 0  9995,2 51127  53.2179  87.9660 0001987  42.6454 153.8889 15.08831410 19048,6917.906999999997,95.438,541.146,538.3969999999998,0.0
51127.0,STARLINK-3370,PAYLOAD,2022-05-13 14:00:01,15.08827461,0.000181,53.218,86.4682,43.3004,164.8146,-0.00086957,-0.00014096,0.0,0 STARLINK-3370,1 51127U 22005Z   22133.58334491 -.00014096  00000-0 -86957-3 0  9993,2 51127  53.2180  86.4682 0001810  43.3004 164.8146 15.08827461  1301,6917.919,95.438,541.036,538.5319999999998,0.0
51127.0,STARLINK-3370,PAYLOAD,2022-05-13 22:00:00,15.08835206,0.0001793,53.2184,84.9717,48.4598,171.2244,0.00034627,5.226e-05,0.0,0 STARLINK-3370,1 51127U 22005Z   22133.91667824  .00005226  00000-0  34627-3 0  9999,2 51127  53.2184  84.9717 0001793  48.4598 171.2244 15.08835206  1308,6917.895,95.438,541.0,538.52,0.0
51127.0,STARLINK-3370,PAYLOAD,2022-05-14 14:00:01,15.08845563,0.0001748,53.2188,81.9791,43.5633,199.3224,-0.0010098,-0.00016326,0.0,0 STARLINK-3370,1 51127U 22005Z   22134.58334491 -.00016326  00000-0 -10098-2 0  9994,2 51127  53.2188  81.9791 0001748  43.5633 199.3224 15.08845563 19245,6917.863,95.437,540.938,538.519,0.0
51127.0,STARLINK-3370,PAYLOAD,2022-05-14 22:00:00,15.08849947,0.00017,53.2192,80.4828,47.2355,207.2343,0.00030389,4.553e-05,0.0,0 STARLINK-3370,1 51127U 22005Z   22134.91667824  .00004553  00000-0  30389-3 0  9993,2 51127  53.2192  80.4828 0001700  47.2355 207.2343 15.08849947  1304,6917.85,95.437,540.891,538.539,0.0
51127.0,STARLINK-3370,PAYLOAD,2022-05-15 14:00:01,15.08827477,0.0001701,53.2192,77.4902,44.7944,232.953,-0.00087312,-0.00014152,0.0,0 STARLINK-3370,1 51127U 22005Z   22135.58335648 -.00014152  00000-0 -87312-3 0  9999,2 51127  53.2192  77.4902 0001701  44.7944 232.9530 15.08827477 19395,6917.919,95.438,540.96,538.607,0.0
51127.0,STARLINK-3370,PAYLOAD,2022-05-15 22:00:00,15.08843199,0.0001681,53.2195,75.9942,49.4911,239.7667,0.00023486,3.452e-05,0.0,0 STARLINK-3370,1 51127U 22005Z   22135.91667824  .00003452  00000-0  23486-3 0  9991,2 51127  53.2195  75.9942 0001681  49.4911 239.7667 15.08843199  1305,6917.871,95.437,540.899,538.573,0.0
51127.0,STARLINK-3370,PAYLOAD,2022-05-16 06:00:02,15.088261800000002,0.0001847,53.2193,74.4996,43.5064,257.4044,0.0017402,0.00027505,0.0,0 STARLINK-3370,1 51127U 22005Z   22136.25002315  .00027505  00000-0  17402-2 0  9992,2 51127  53.2193  74.4996 0001847  43.5064 257.4044 15.08826180 19490,6917.9230000000025,95.438,541.065,538.51,0.0
51127.0,STARLINK-3370,PAYLOAD,2022-05-16 12:00:00,15.08864307,0.0001717,53.2191,73.3762,45.3642,174.1701,-0.0054931999999999,-0.0008672,0.0,0 STARLINK-3370,1 51127U 22005Z   22136.50001157 -.00086720  00000-0 -54932-2 0  9998,2 51127  53.2191  73.3762 0001717  45.3642 174.1701 15.08864307 19538,6917.806,95.436,540.859,538.4830000000002,0.0
51127.0,STARLINK-3370,PAYLOAD,2022-05-16 14:00:01,15.08833372,0.0001664,53.2193,73.0018,47.0649,265.3774,-0.0028034,-0.0004462,0.0,0 STARLINK-3370,1 51127U 22005Z   22136.58334491 -.00044620  00000-0 -28034-2 0  9993,2 51127  53.2193  73.0018 0001664  47.0649 265.3774 15.08833372  1305,6917.901,95.438,540.9169999999998,538.615,0.0
51127.0,STARLINK-3370,PAYLOAD,2022-05-16 22:00:00,15.08822115,0.0001686,53.2194,71.506,51.1076,272.9061,-0.00027658,-4.685e-05,0.0,0 STARLINK-3370,1 51127U 22005Z   22136.91667824 -.00004685  00000-0 -27658-3 0  9998,2 51127  53.2194  71.5060 0001686  51.1076 272.9061 15.08822115 19596,6917.935,95.439,540.966,538.634,0.0
51127.0,STARLINK-3370,PAYLOAD,2022-05-17 14:00:01,15.08832688,0.0001712,53.219,68.5134,51.6459,295.5822,0.00059247,9.152e-05,0.0,0 STARLINK-3370,1 51127U 22005Z   22137.58335648  .00009152  00000-0  59247-3 0  9999,2 51127  53.2190  68.5134 0001712  51.6459 295.5822 15.08832688  1302,6917.903,95.438,540.952,538.5830000000002,0.0
51127.0,STARLINK-3370,PAYLOAD,2022-05-17 20:00:01,15.08851423,0.0001759,53.2191,67.3913,56.5488,209.3075,-0.0010488,-0.00016946,0.0,0 STARLINK-3370,1 51127U 22005Z   22137.83334491 -.00016946  00000-0 -10488-2 0  9996,2 51127  53.2191  67.3913 0001759  56.5488 209.3075 15.08851423 19739,6917.845,95.437,540.927,538.494,0.0
